OBJECT_NAME,OBJECT_ID,EPOCH,MEAN_MOTION,ECCENTRICITY,INCLINATION,RA_OF_ASC_NODE,ARG_OF_PERICENTER,MEAN_ANOMALY,EPHEMERIS_TYPE,CLASSIFICATION_TYPE,NORAD_CAT_ID,ELEMENT_SET_NO,REV_AT_EPOCH,BSTAR,MEAN_MOTION_DOT,MEAN_MOTION_DDOT
ALTAIR (RS65S),2024-199AW,2026-07-02T06:42:49.878144,15.37315782,.00109031,97.3006,52.5322,247.7493,112.2596,0,U,61779,999,13943,.29836146E-3,.10851E-3,0
SITRO-AIS 37,2024-199AX,2026-07-02T05:35:05.794080,15.60551659,.00062014,97.2894,59.7508,206.9407,153.1529,0,U,61780,999,13678,.68096378E-3,.564E-3,0
ASRTU-1 (AO-123),2024-199AY,2026-07-02T06:44:53.640096,15.35890595,.0011969,97.2977,51.8163,251.7265,108.2677,0,U,61781,999,13624,.24848799E-3,.8619E-4,0
SAMSAT-IONOSPHERE (RS75S),2024-199BB,2026-07-02T06:41:26.462400,15.58988406,.00074804,97.2916,59.5332,206.0053,154.0829,0,U,61784,999,13991,.63055113E-3,.49186E-3,0
RTU MIREA 1 (RS51S),2024-199BC,2026-07-02T06:26:13.196256,15.62806885,.00075652,97.2904,60.4353,198.5705,161.5278,0,U,61785,999,13682,.7556265E-3,.68406E-3,0
SITRO-AIS 38,2024-199BD,2026-07-02T05:46:08.294592,15.49762139,.00076834,97.2916,57.6230,221.0532,139.0142,0,U,61786,999,13664,.56119236E-3,.31207E-3,0
2024-199BE,2024-199BE,2026-07-02T07:04:33.554784,15.36739733,.00114808,97.2984,52.1495,248.8352,111.1666,0,U,61787,999,13941,.28199841E-3,.10064E-3,0
SITRO-AIS 45,2024-199BF,2026-07-02T06:06:20.519424,15.59656427,.00057379,97.2864,59.4391,205.3733,154.7243,0,U,61788,999,13675,.71963427E-3,.57615E-3,0
SITRO-AIS 17,2024-199BG,2026-07-02T06:10:07.252032,14.98031791,.00071605,97.3230,21.9487,34.9881,325.1812,0,U,61789,999,13429,.22340411E-3,.2587E-4,0
SITRO-AIS 18,2024-199BH,2026-07-02T06:29:57.120864,14.97980257,.00065543,97.3213,21.9067,29.9935,330.1663,0,U,61790,999,13429,.23714711E-3,.2746E-4,0
STARLINK-32362,2024-202A,2026-07-02T00:36:39.688704,15.27565527,.00008808,43.0024,301.0522,266.9286,93.1465,0,U,61845,999,9353,-.47530101E-4,-.1569E-4,0
STARLINK-32472,2024-202B,2026-07-01T16:09:03.948768,15.27580807,.00015161,43.0035,303.5701,264.0907,95.9772,0,U,61846,999,9288,.46381365E-4,.1014E-4,0
STARLINK-32352,2024-202C,2026-07-01T16:38:27.018528,15.27590593,.00010762,43.0110,302.8495,290.7440,69.3297,0,U,61847,999,9290,.93444238E-4,.2311E-4,0
STARLINK-32427,2024-202D,2026-07-02T00:51:27.647424,15.27573144,.00008235,43.0011,301.1302,51.3579,308.7346,0,U,61848,999,9294,-.54515705E-4,-.1761E-4,0
STARLINK-32346,2024-202E,2026-07-02T00:57:00.611424,15.27570637,.000034,43.0013,301.1587,265.6854,94.3959,0,U,61849,999,9294,-.9920514E-5,-.535E-5,0
STARLINK-32330,2024-202F,2026-07-01T19:13:25.904928,15.27588701,.00003917,42.9990,313.1934,274.8266,85.2541,0,U,61850,999,9279,.74803631E-4,.1798E-4,0
STARLINK-32379,2024-202G,2026-07-02T00:23:41.354304,15.27594879,.00019268,42.9967,300.9810,275.3103,84.7529,0,U,61851,999,9294,-.17481807E-3,-.5072E-4,0
STARLINK-32433,2024-202H,2026-07-02T01:35:37.786848,15.27578735,.00003284,43.0050,311.7446,356.9437,3.1412,0,U,61852,999,9283,.12620901E-3,.3213E-4,0
STARLINK-32394,2024-202J,2026-07-02T01:39:17.226432,15.27585424,.00046718,43.0014,311.7650,264.5478,95.4841,0,U,61853,999,9282,.32643449E-4,.635E-5,0
STARLINK-32486,2024-202K,2026-07-02T01:44:52.826496,15.27568643,.00002601,43.0031,311.7937,266.6157,93.4665,0,U,61854,999,9283,-.8996799E-5,-.509E-5,0
STARLINK-32391,2024-202L,2026-07-02T01:50:26.404800,15.27563893,.00006944,43.0044,311.8223,313.5935,46.4859,0,U,61855,999,9282,-.26254577E-4,-.984E-5,0
STARLINK-32483,2024-202M,2026-07-02T01:55:58.429632,15.27572008,.00017911,43.0060,311.8484,259.8669,100.1981,0,U,61856,999,9283,-.4627893E-5,-.39E-5,0
STARLINK-32451,2024-202N,2026-07-02T02:07:05.896416,15.27561943,.00006663,42.9992,311.9127,344.8865,15.1966,0,U,61857,999,9283,-.32981708E-4,-.1169E-4,0
STARLINK-32556,2024-202P,2026-07-02T02:01:32.210112,15.27567164,.00010885,43.0052,311.8792,292.8902,67.1835,0,U,61858,999,9283,-.85379284E-4,-.261E-4,0
STARLINK-32466,2024-202Q,2026-06-30T18:47:39.979104,15.27564675,.00012566,43.0035,319.3130,278.1718,81.8991,0,U,61859,999,9263,-.38948181E-4,-.1333E-4,0
STARLINK-32316,2024-202R,2026-07-02T01:47:26.057760,15.27564385,.00006671,43.0070,308.3400,285.2945,74.7833,0,U,61860,999,9286,-.3538995E-5,-.359E-5,0
STARLINK-32415,2024-202S,2026-07-01T18:31:05.234304,15.27589217,.00013698,43.0018,313.8300,270.2025,89.8670,0,U,61861,999,9277,.81058902E-4,.197E-4,0
STARLINK-32393,2024-202T,2026-07-01T16:51:22.562208,15.27560621,.00017452,43.0029,314.1723,237.1605,122.9079,0,U,61862,999,9277,.43270622E-3,.11657E-3,0
STARLINK-32324,2024-202U,2026-06-30T01:54:08.497728,15.27583615,.00011791,43.0010,323.4927,275.6714,84.4003,0,U,61863,999,9251,-.77047277E-4,-.2382E-4,0
STARLINK-32318,2024-202V,2026-07-02T01:08:04.280928,15.27581037,.00007015,42.9893,312.4651,289.6249,70.4527,0,U,61864,999,9282,.57028264E-4,.1308E-4,0
