ALTAIR (RS65S)          
1 61779U 24199AW  26183.27974396  .00010851  00000+0  29836-3 0  9997
2 61779  97.3006  52.5322 0010903 247.7493 112.2596 15.37315782139433
SITRO-AIS 37            
1 61780U 24199AX  26183.23270595  .00056400  00000+0  68096-3 0  9996
2 61780  97.2894  59.7508 0006201 206.9407 153.1529 15.60551659136788
ASRTU-1 (AO-123)        
1 61781U 24199AY  26183.28117639  .00008619  00000+0  24849-3 0  9998
2 61781  97.2977  51.8163 0011969 251.7265 108.2677 15.35890595136241
SAMSAT-IONOSPHERE (RS7*)
1 61784U 24199BB  26183.27877850  .00049186  00000+0  63055-3 0  9994
2 61784  97.2916  59.5332 0007480 206.0053 154.0829 15.58988406139910
RTU MIREA 1 (RS51S)     
1 61785U 24199BC  26183.26820829  .00068406  00000+0  75563-3 0  9991
2 61785  97.2904  60.4353 0007565 198.5705 161.5278 15.62806885136828
SITRO-AIS 38            
1 61786U 24199BD  26183.24037378  .00031207  00000+0  56119-3 0  9994
2 61786  97.2916  57.6230 0007683 221.0532 139.0142 15.49762139136643
2024-199BE              
1 61787U 24199BE  26183.29483281  .00010064  00000+0  28200-3 0  9996
2 61787  97.2984  52.1495 0011480 248.8352 111.1666 15.36739733139419
SITRO-AIS 45            
1 61788U 24199BF  26183.25440416  .00057615  00000+0  71963-3 0  9993
2 61788  97.2864  59.4391 0005737 205.3733 154.7243 15.59656427136752
SITRO-AIS 17            
1 61789U 24199BG  26183.25702838  .00002587  00000+0  22340-3 0  9996
2 61789  97.3230  21.9487 0007160  34.9881 325.1812 14.98031791134299
SITRO-AIS 18            
1 61790U 24199BH  26183.27080001  .00002746  00000+0  23715-3 0  9995
2 61790  97.3213  21.9067 0006554  29.9935 330.1663 14.97980257134295
STARLINK-32362          
1 61845U 24202A   26183.02545936 -.00001569  00000+0 -47530-4 0  9993
2 61845  43.0024 301.0522 0000880 266.9286  93.1465 15.27565527 93530
STARLINK-32472          
1 61846U 24202B   26182.67296237  .00001014  00000+0  46381-4 0  9997
2 61846  43.0035 303.5701 0001516 264.0907  95.9772 15.27580807 92881
STARLINK-32352          
1 61847U 24202C   26182.69336827  .00002311  00000+0  93444-4 0  9993
2 61847  43.0110 302.8495 0001076 290.7440  69.3297 15.27590593 92900
STARLINK-32427          
1 61848U 24202D   26183.03573666 -.00001761  00000+0 -54516-4 0  9994
2 61848  43.0011 301.1302 0000823  51.3579 308.7346 15.27573144 92945
STARLINK-32346          
1 61849U 24202E   26183.03959041 -.00000535  00000+0 -99205-5 0  9993
2 61849  43.0013 301.1587 0000340 265.6854  94.3959 15.27570637 92945
STARLINK-32330          
1 61850U 24202F   26182.80099427  .00001798  00000+0  74804-4 0  9999
2 61850  42.9990 313.1934 0000391 274.8266  85.2541 15.27588701 92793
STARLINK-32379          
1 61851U 24202G   26183.01645086 -.00005072  00000+0 -17482-3 0  9991
2 61851  42.9967 300.9810 0001926 275.3103  84.7529 15.27594879 92946
STARLINK-32433          
1 61852U 24202H   26183.06640957  .00003213  00000+0  12621-3 0  9992
2 61852  43.0050 311.7446 0000328 356.9437   3.1412 15.27578735 92835
STARLINK-32394          
1 61853U 24202J   26183.06894938  .00000635  00000+0  32643-4 0  9995
2 61853  43.0014 311.7650 0004671 264.5478  95.4841 15.27585424 92829
STARLINK-32486          
1 61854U 24202K   26183.07283364 -.00000509  00000+0 -89968-5 0  9997
2 61854  43.0031 311.7937 0000260 266.6157  93.4665 15.27568643 92831
STARLINK-32391          
1 61855U 24202L   26183.07669450 -.00000984  00000+0 -26255-4 0  9998
2 61855  43.0044 311.8223 0000694 313.5935  46.4859 15.27563893 92826
STARLINK-32483          
1 61856U 24202M   26183.08053738 -.00000390  00000+0 -46279-5 0  9996
2 61856  43.0060 311.8484 0001791 259.8669 100.1981 15.27572008 92832
STARLINK-32451          
1 61857U 24202N   26183.08826269 -.00001169  00000+0 -32982-4 0  9994
2 61857  42.9992 311.9127 0000666 344.8865  15.1966 15.27561943 92837
STARLINK-32556          
1 61858U 24202P   26183.08440058 -.00002610  00000+0 -85379-4 0  9993
2 61858  43.0052 311.8792 0001088 292.8902  67.1835 15.27567164 92830
STARLINK-32466          
1 61859U 24202Q   26181.78310161 -.00001333  00000+0 -38948-4 0  9991
2 61859  43.0035 319.3130 0001256 278.1718  81.8991 15.27564675 92638
STARLINK-32316          
1 61860U 24202R   26183.07460715 -.00000359  00000+0 -35390-5 0  9994
2 61860  43.0070 308.3400 0000667 285.2945  74.7833 15.27564385 92862
STARLINK-32415          
1 61861U 24202S   26182.77158836  .00001970  00000+0  81059-4 0  9999
2 61861  43.0018 313.8300 0001369 270.2025  89.8670 15.27589217 92775
STARLINK-32393          
1 61862U 24202T   26182.70234447  .00011657  00000+0  43271-3 0  9992
2 61862  43.0029 314.1723 0001745 237.1605 122.9079 15.27560621 92775
STARLINK-32324          
1 61863U 24202U   26181.07926502 -.00002382  00000+0 -77047-4 0  9998
2 61863  43.0010 323.4927 0001179 275.6714  84.4003 15.27583615 92513
STARLINK-32318          
1 61864U 24202V   26183.04727177  .00001308  00000+0  57028-4 0  9997
2 61864  42.9893 312.4651 0000701 289.6249  70.4527 15.27581037 92827
